{
  "type": "FeatureCollection",
  "name": "Burgas Blue Zone",
  "features": [
    {
      "type": "Feature",
      "properties": { "zone": "blue", "name": "Blue Zone Central", "smsCode": "1356", "hourlyRate": 2.00 },
      "geometry": {
        "type": "Polygon",
        "coordinates": [[
          [27.4520, 42.5075],
          [27.4610, 42.5090],
          [27.4720, 42.5085],
          [27.4800, 42.5050],
          [27.4820, 42.4990],
          [27.4790, 42.4930],
          [27.4720, 42.4895],
          [27.4620, 42.4880],
          [27.4530, 42.4900],
          [27.4470, 42.4950],
          [27.4460, 42.5020],
          [27.4490, 42.5065],
          [27.4520, 42.5075]
        ]]
      }
    }
  ]
}
